[{"OBJECT_NAME":"SITRO-AIS 5 (KATYS)","OBJECT_ID":"2023-091L","EPOCH":"2026-03-09T22:36:44.932608","MEAN_MOTION":15.27079182,"ECCENTRICITY":0.00133776,"INCLINATION":97.5176,"RA_OF_ASC_NODE":132.0172,"ARG_OF_PERICENTER":94.5677,"MEAN_ANOMALY":265.709,"EPHEMERIS_TYPE":0,"CLASSIFICATION_TYPE":"U","NORAD_CAT_ID":57176,"ELEMENT_SET_NO":999,"REV_AT_EPOCH":14918,"BSTAR":0.00057530772,"MEAN_MOTION_DOT":0.00015262,"MEAN_MOTION_DDOT":0},{"OBJECT_NAME":"STARLINK-35611","OBJECT_ID":"2025-259F","EPOCH":"2026-03-09T19:59:39.060672","MEAN_MOTION":15.27592891,"ECCENTRICITY":0.00018065,"INCLINATION":43.0003,"RA_OF_ASC_NODE":273.5007,"ARG_OF_PERICENTER":274.1429,"MEAN_ANOMALY":85.9216,"EPHEMERIS_TYPE":0,"CLASSIFICATION_TYPE":"U","NORAD_CAT_ID":66427,"ELEMENT_SET_NO":999,"REV_AT_EPOCH":1951,"BSTAR":0.001013964,"MEAN_MOTION_DOT":0.00027756,"MEAN_MOTION_DDOT":0}]
